[{"OBJECT_NAME":"ONEWEB-0253","OBJECT_ID":"2021-060E","EPOCH":"2026-03-09T23:20:38.093568","MEAN_MOTION":13.16595437,"ECCENTRICITY":0.00017109,"INCLINATION":87.9003,"RA_OF_ASC_NODE":248.5098,"ARG_OF_PERICENTER":97.498,"MEAN_ANOMALY":262.6345,"EPHEMERIS_TYPE":0,"CLASSIFICATION_TYPE":"U","NORAD_CAT_ID":48971,"ELEMENT_SET_NO":999,"REV_AT_EPOCH":22653,"BSTAR":-9.0600134e-5,"MEAN_MOTION_DOT":-2.2e-7,"MEAN_MOTION_DDOT":0},{"OBJECT_NAME":"FENGYUN 1C DEB","OBJECT_ID":"1999-025AUQ","EPOCH":"2026-03-09T00:10:41.404224","MEAN_MOTION":13.70585074,"ECCENTRICITY":0.02666258,"INCLINATION":99.0288,"RA_OF_ASC_NODE":94.4304,"ARG_OF_PERICENTER":262.8534,"MEAN_ANOMALY":124.0623,"EPHEMERIS_TYPE":0,"CLASSIFICATION_TYPE":"U","NORAD_CAT_ID":30806,"ELEMENT_SET_NO":999,"REV_AT_EPOCH":94877,"BSTAR":0.00094592753,"MEAN_MOTION_DOT":1.036e-5,"MEAN_MOTION_DDOT":0}]
